$$SOE
2459580.500000000, A.D. 2022-Jan-01 00:00:00.0000, -2.799790612541848E+08, 1.692853246023162E+08, -4.379627667146996E+06,
2459587.500000000, A.D. 2022-Jan-08 00:00:00.0000, -2.849464018692927E+08, 1.576483209211629E+08, -3.547153954853043E+06,
2459594.500000000, A.D. 2022-Jan-15 00:00:00.0000, -2.895133389602666E+08, 1.457898157846203E+08, -2.709697166661777E+06,
2459601.500000000, A.D. 2022-Jan-22 00:00:00.0000, -2.936677482475182E+08, 1.337236013625335E+08, -1.868381181336083E+06,
2459608.500000000, A.D. 2022-Jan-29 00:00:00.0000, -2.973979452481488E+08, 1.214642504481627E+08, -1.024368486622162E+06,
2459615.500000000, A.D. 2022-Feb-05 00:00:00.0000, -3.006927453251459E+08, 1.090271099485061E+08, -1.788584041282088E+05,
2459622.500000000, A.D. 2022-Feb-12 00:00:00.0000, -3.035415230736402E+08, 9.642828867140378E+07, 6.669147221930847E+05,
2459629.500000000, A.D. 2022-Feb-19 00:00:00.0000, -3.059342719613203E+08, 8.368464144904174E+07, 1.511683703073625E+06,
2459636.500000000, A.D. 2022-Feb-26 00:00:00.0000, -3.078616650834518E+08, 7.081374857014446E+07, 2.354151116919920E+06,
2459643.500000000, A.D. 2022-Mar-05 00:00:00.0000, -3.093151163765863E+08, 5.783388964130910E+07, 3.192992298383616E+06,
2459650.500000000, A.D. 2022-Mar-12 00:00:00.0000, -3.102868415256856E+08, 4.476401160002194E+07, 4.026858676745525E+06,
2459657.500000000, A.D. 2022-Mar-19 00:00:00.0000, -3.107699179047994E+08, 3.162369075805875E+07, 4.854381454708034E+06,
2459664.500000000, A.D. 2022-Mar-26 00:00:00.0000, -3.107583428946021E+08, 1.843308878814011E+07, 5.674175615027166E+06,
2459671.500000000, A.D. 2022-Apr-02 00:00:00.0000, -3.102470898374097E+08, 5.212902587351225E+06, 6.484844229331035E+06,
2459678.500000000, A.D. 2022-Apr-09 00:00:00.0000, -3.092321606635527E+08, -8.015691911171691E+06, 7.284983024587955E+06,
2459685.500000000, A.D. 2022-Apr-16 00:00:00.0000, -3.077106341288381E+08, -2.123110117015381E+07, 8.073185202637144E+06,
2459692.500000000, A.D. 2022-Apr-23 00:00:00.0000, -3.056807102303814E+08, -3.441137939097832E+07, 8.848046686979080E+06,
2459699.500000000, A.D. 2022-Apr-30 00:00:00.0000, -3.031417519855387E+08, -4.753429966789872E+07, 9.608171748305494E+06,
2459706.500000000, A.D. 2022-May-07 00:00:00.0000, -3.000943208573642E+08, -6.057743248334335E+07, 1.035217852481419E+07,
2459713.500000000, A.D. 2022-May-14 00:00:00.0000, -2.965402038184778E+08, -7.351822796189989E+07, 1.107870451223002E+07,
2459720.500000000, A.D. 2022-May-21 00:00:00.0000, -2.924824335110869E+08, -8.633410049204502E+07, 1.178641222122464E+07,
2459727.500000000, A.D. 2022-May-28 00:00:00.0000, -2.879253014834674E+08, -9.900251596772383E+07, 1.247399491227734E+07,
2459734.500000000, A.D. 2022-Jun-04 00:00:00.0000, -2.828743638234862E+08, -1.115010811833399E+08, 1.314018229870373E+07,
2459741.500000000, A.D. 2022-Jun-11 00:00:00.0000, -2.773364387418725E+08, -1.238076345343683E+08, 1.378374614559051E+07,
2459748.500000000, A.D. 2022-Jun-18 00:00:00.0000, -2.713195958690770E+08, -1.359003371159015E+08, 1.440350570265216E+07,
2459755.500000000, A.D. 2022-Jun-25 00:00:00.0000, -2.648331371542759E+08, -1.477577633276044E+08, 1.499833290653221E+07,
2459762.500000000, A.D. 2022-Jul-02 00:00:00.0000, -2.578875692730635E+08, -1.593589901130377E+08, 1.556715727756874E+07,
2459769.500000000, A.D. 2022-Jul-09 00:00:00.0000, -2.504945673189613E+08, -1.706836837232039E+08, 1.610897043544487E+07,
2459776.500000000, A.D. 2022-Jul-16 00:00:00.0000, -2.426669301220165E+08, -1.817121820110777E+08, 1.662283027718563E+07,
2459783.500000000, A.D. 2022-Jul-23 00:00:00.0000, -2.344185297982509E+08, -1.924255713110157E+08, 1.710786498036525E+07,
2459790.500000000, A.D. 2022-Jul-30 00:00:00.0000, -2.257642559641512E+08, -2.028057604518505E+08, 1.756327651063704E+07,
2459797.500000000, A.D. 2022-Aug-06 00:00:00.0000, -2.167199516420696E+08, -2.128355505288496E+08, 1.798834332506298E+07,
2459804.500000000, A.D. 2022-Aug-13 00:00:00.0000, -2.073023423929282E+08, -2.224986970396648E+08, 1.838242254863235E+07,
2459811.500000000, A.D. 2022-Aug-20 00:00:00.0000, -1.975289610279751E+08, -2.317799643445919E+08, 1.874495171114086E+07,
2459818.500000000, A.D. 2022-Aug-27 00:00:00.0000, -1.874180686664763E+08, -2.406651727449725E+08, 1.907544997028174E+07,
2459825.500000000, A.D. 2022-Sep-03 00:00:00.0000, -1.769885727645726E+08, -2.491412379786206E+08, 1.937351878818311E+07,
2459832.500000000, A.D. 2022-Sep-10 00:00:00.0000, -1.662599429228403E+08, -2.571962029197904E+08, 1.963884206267351E+07,
2459839.500000000, A.D. 2022-Sep-17 00:00:00.0000, -1.552521253460005E+08, -2.648192614142171E+08, 1.987118572621982E+07,
2459846.500000000, A.D. 2022-Sep-24 00:00:00.0000, -1.439854567810748E+08, -2.720007743415648E+08, 2.007039682530554E+07,
2459853.500000000, A.D. 2022-Oct-01 00:00:00.0000, -1.324805785477630E+08, -2.787322780777140E+08, 2.023640208455020E+07,
2459860.500000000, A.D. 2022-Oct-08 00:00:00.0000, -1.207583510612670E+08, -2.850064850861217E+08, 2.036920599407883E+07,
2459867.500000000, A.D. 2022-Oct-15 00:00:00.0000, -1.088397705283907E+08, -2.908172757800402E+08, 2.046888864098358E+07,
2459874.500000000, A.D. 2022-Oct-22 00:00:00.0000, -9.674589067739694E+07, -2.961596837581679E+08, 2.053560338773184E+07,
2459881.500000000, A.D. 2022-Oct-29 00:00:00.0000, -8.449774762593080E+07, -3.010298774954974E+08, 2.056957399946597E+07,
2459888.500000000, A.D. 2022-Nov-05 00:00:00.0000, -7.211628631136961E+07, -3.054251362931052E+08, 2.057109129723355E+07,
2459895.500000000, A.D. 2022-Nov-12 00:00:00.0000, -5.962229089009726E+07, -3.093438198011737E+08, 2.054050966758491E+07,
2459902.500000000, A.D. 2022-Nov-19 00:00:00.0000, -4.703632018276069E+07, -3.127853326713713E+08, 2.047824346257077E+07,
2459909.500000000, A.D. 2022-Nov-26 00:00:00.0000, -3.437864817722324E+07, -3.157500853435442E+08, 2.038476327741660E+07,
2459916.500000000, A.D. 2022-Dec-03 00:00:00.0000, -2.166920961108154E+07, -3.182394515790708E+08, 2.026059212966360E+07,
2459923.500000000, A.D. 2022-Dec-10 00:00:00.0000, -8.927550689007426E+06, -3.202557233141072E+08, 2.010630157353312E+07,
2459930.500000000, A.D. 2022-Dec-17 00:00:00.0000, 3.827215066714241E+06, -3.218020634440830E+08, 1.992250778057209E+07,
2459937.500000000, A.D. 2022-Dec-24 00:00:00.0000, 1.657644597897862E+07, -3.228824571795093E+08, 1.970986760678022E+07,
2459944.500000000, A.D. 2022-Dec-31 00:00:00.0000, 2.930200683481218E+07, -3.235016624102236E+08, 1.946907465622449E+07,
2459951.500000000, A.D. 2023-Jan-07 00:00:00.0000, 4.198629921301971E+07, -3.236651586160201E+08, 1.920085543846808E+07,
2459958.500000000, A.D. 2023-Jan-14 00:00:00.0000, 5.461228572622528E+07, -3.233790942768385E+08, 1.890596586557607E+07,
2459965.500000000, A.D. 2023-Jan-21 00:00:00.0000, 6.716350774460223E+07, -3.226502363554934E+08, 1.858518790834099E+07,
2459972.500000000, A.D. 2023-Jan-28 00:00:00.0000, 7.962410051378652E+07, -3.214859224060889E+08, 1.823932607565731E+07,
2459979.500000000, A.D. 2023-Feb-04 00:00:00.0000, 9.197880572460486E+07, -3.198940125979229E+08, 1.786920399749959E+07,
2459986.500000000, A.D. 2023-Feb-11 00:00:00.0000, 1.042129800192420E+08, -3.178828421222834E+08, 1.747566127138339E+07,
2459993.500000000, A.D. 2023-Feb-18 00:00:00.0000, 1.163125996592771E+08, -3.154611750359147E+08, 1.705955051895854E+07,
2460000.500000000, A.D. 2023-Feb-25 00:00:00.0000, 1.282642619107700E+08, -3.126381598933035E+08, 1.662173462099308E+07,
2460007.500000000, A.D. 2023-Mar-04 00:00:00.0000, 1.400551835395970E+08, -3.094232873012034E+08, 1.616308412608278E+07,
2460014.500000000, A.D. 2023-Mar-11 00:00:00.0000, 1.516731967317341E+08, -3.058263495106030E+08, 1.568447483127527E+07,
2460021.500000000, A.D. 2023-Mar-18 00:00:00.0000, 1.631067427652737E+08, -3.018574021781003E+08, 1.518678552505177E+07,
2460028.500000000, A.D. 2023-Mar-25 00:00:00.0000, 1.743448639090670E+08, -2.975267283991246E+08, 1.467089586797643E+07,
2460035.500000000, A.D. 2023-Apr-01 00:00:00.0000, 1.853771942316019E+08, -2.928448046521068E+08, 1.413768440139075E+07,
2460042.500000000, A.D. 2023-Apr-08 00:00:00.0000, 1.961939489475695E+08, -2.878222674388560E+08, 1.358802683662078E+07,
2460049.500000000, A.D. 2023-Apr-15 00:00:00.0000, 2.067859101907014E+08, -2.824698817145415E+08, 1.302279474286278E+07,
2460056.500000000, A.D. 2023-Apr-22 00:00:00.0000, 2.171444112323596E+08, -2.767985141256872E+08, 1.244285421128312E+07,
2460063.500000000, A.D. 2023-Apr-29 00:00:00.0000, 2.272613220781222E+08, -2.708191087567731E+08, 1.184906442130341E+07,
2460070.500000000, A.D. 2023-May-06 00:00:00.0000, 2.371290348639596E+08, -2.645426635490086E+08, 1.124227640888260E+07,
2460077.500000000, A.D. 2023-May-13 00:00:00.0000, 2.467404482399393E+08, -2.579802082198893E+08, 1.062333204577523E+07,
2460084.500000000, A.D. 2023-May-20 00:00:00.0000, 2.560889511243817E+08, -2.511427841012664E+08, 9.993063160210952E+06,
2460091.500000000, A.D. 2023-May-27 00:00:00.0000, 2.651684061559066E+08, -2.440414258461273E+08, 9.352290770798475E+06,
2460098.500000000, A.D. 2023-Jun-03 00:00:00.0000, 2.739731330205374E+08, -2.366871448950190E+08, 8.701824422474280E+06,
2460105.500000000, A.D. 2023-Jun-10 00:00:00.0000, 2.824978917828982E+08, -2.290909146300803E+08, 8.042461613148689E+06,
2460112.500000000, A.D. 2023-Jun-17 00:00:00.0000, 2.907378664021059E+08, -2.212636571882269E+08, 7.374987289862141E+06,
2460119.500000000, A.D. 2023-Jun-24 00:00:00.0000, 2.986886488333598E+08, -2.132162317873165E+08, 6.700173381868944E+06,
2460126.500000000, A.D. 2023-Jul-01 00:00:00.0000, 3.063462240419995E+08, -2.049594236489131E+08, 6.018778408309177E+06,
2460133.500000000, A.D. 2023-Jul-08 00:00:00.0000, 3.137069543200518E+08, -1.965039326126414E+08, 5.331547375002623E+06,
2460140.500000000, A.D. 2023-Jul-15 00:00:00.0000, 3.207675616790103E+08, -1.878603641902003E+08, 4.639211839671418E+06,
2460147.500000000, A.D. 2023-Jul-22 00:00:00.0000, 3.275251118807260E+08, -1.790392240098132E+08, 3.942489731455937E+06,
$$EOE